{"type": "FeatureCollection", "features": [ {"type": "Feature", "properties": {"norad_id": 31040, "name": "FENGYUN 1C DEB", "group": "fengyun-1c-debris", "lat": 40.14844627409627, "lon": -32.696961687139506, "alt_km": 871.8737831185244, "timestamp": "2025-12-10T18:57:00.345651+00:00", "meta": {"OBJECT_NAME": "FENGYUN 1C DEB", "OBJECT_ID": "1999-025BEJ", "EPOCH": "2025-12-10T11:00:22.410144", "MEAN_MOTION": 14.17667156, "ECCENTRICITY": 0.0062154, "INCLINATION": 98.658, "RA_OF_ASC_NODE": 334.3649, "ARG_OF_PERICENTER": 200.6861, "MEAN_ANOMALY": 312.0485, "EPHEMERIS_TYPE": 0, "CLASSIFICATION_TYPE": "U", "NORAD_CAT_ID": 31040, "ELEMENT_SET_NO": 999, "REV_AT_EPOCH": 96674, "BSTAR": 0.00046132, "MEAN_MOTION_DOT": 9.14e-06, "MEAN_MOTION_DDOT": 0}, "tle": {"line1": "1 31040U 99025BEJ 25344.45859271  .00000914  00000+0  46132-3 0  9994", "line2": "2 31040  98.6580 334.3649 0062154 200.6861 312.0485 14.17667156966748"}}, "geometry": {"type": "Point", "coordinates": [-32.696961687139506, 40.14844627409627]}}, {"type": "Feature", "properties": {"norad_id": 31041, "name": "FENGYUN 1C DEB", "group": "fengyun-1c-debris", "lat": -78.47829989986069, "lon": 66.0642689320285, "alt_km": 798.6618859083101, "timestamp": "2025-12-10T18:57:00.345663+00:00", "meta": {"OBJECT_NAME": "FENGYUN 1C DEB", "OBJECT_ID": "1999-025BEK", "EPOCH": "2025-12-10T00:42:16.653888", "MEAN_MOTION": 14.17797683, "ECCENTRICITY": 0.00868197, "INCLINATION": 99.2053, "RA_OF_ASC_NODE": 12.573, "ARG_OF_PERICENTER": 328.076, "MEAN_ANOMALY": 31.517, "EPHEMERIS_TYPE": 0, "CLASSIFICATION_TYPE": "U", "NORAD_CAT_ID": 31041, "ELEMENT_SET_NO": 999, "REV_AT_EPOCH": 95451, "BSTAR": 0.0029906888, "MEAN_MOTION_DOT": 6.289e-05, "MEAN_MOTION_DDOT": 0}, "tle": {"line1": "1 31041U 99025BEK 25344.02935942  .00006289  00000+0  29907-2 0  9999", "line2": "2 31041  99.2053  12.5730 0086819 328.0760  31.5170 14.17797683954519"}}, "geometry": {"type": "Point", "coordinates": [66.0642689320285, -78.47829989986069]}}, {"type": "Feature", "properties": {"norad_id": 31043, "name": "FENGYUN 1C DEB", "group": "fengyun-1c-debris", "lat": -7.859754165530894, "lon": 3.8745153450676844, "alt_km": 839.9863598687052, "timestamp": "2025-12-10T18:57:00.345674+00:00", "meta": {"OBJECT_NAME": "FENGYUN 1C DEB", "OBJECT_ID": "1999-025BEM", "EPOCH": "2025-12-10T12:53:39.814368", "MEAN_MOTION": 14.08423122, "ECCENTRICITY": 0.004146, "INCLINATION": 98.7645, "RA_OF_ASC_NODE": 2.4091, "ARG_OF_PERICENTER": 10.4286, "MEAN_ANOMALY": 143.2415, "EPHEMERIS_TYPE": 0, "CLASSIFICATION_TYPE": "U", "NORAD_CAT_ID": 31043, "ELEMENT_SET_NO": 999, "REV_AT_EPOCH": 95956, "BSTAR": 0.00064162, "MEAN_MOTION_DOT": 1.065e-05, "MEAN_MOTION_DDOT": 0}, "tle": {"line1": "1 31043U 99025BEM 25344.53726637  .00001065  00000+0  64162-3 0  9996", "line2": "2 31043  98.7645   2.4091 0041460  10.4286 143.2415 14.08423122959565"}}, "geometry": {"type": "Point", "coordinates": [3.8745153450676844, -7.859754165530894]}}, {"type": "Feature", "properties": {"norad_id": 31046, "name": "FENGYUN 1C DEB", "group": "fengyun-1c-debris", "lat": 36.45532299820073, "lon": -68.99427431614217, "alt_km": 651.1945398046173, "timestamp": "2025-12-10T18:57:00.345684+00:00", "meta": {"OBJECT_NAME": "FENGYUN 1C DEB", "OBJECT_ID": "1999-025BEQ", "EPOCH": "2025-12-10T06:57:05.404032", "MEAN_MOTION": 14.63615322, "ECCENTRICITY": 0.0046888, "INCLINATION": 98.9682, "RA_OF_ASC_NODE": 103.7626, "ARG_OF_PERICENTER": 110.921, "MEAN_ANOMALY": 279.0126, "EPHEMERIS_TYPE": 0, "CLASSIFICATION_TYPE": "U", "NORAD_CAT_ID": 31046, "ELEMENT_SET_NO": 999, "REV_AT_EPOCH": 96607, "BSTAR": 0.0070034, "MEAN_MOTION_DOT": 0.00037111, "MEAN_MOTION_DDOT": 0}, "tle": {"line1": "1 31046U 99025BEQ 25344.28964588  .00037111  00000+0  70034-2 0  9995", "line2": "2 31046  98.9682 103.7626 0046888 110.9210 279.0126 14.63615322966079"}}, "geometry": {"type": "Point", "coordinates": [-68.99427431614217, 36.45532299820073]}}, {"type": "Feature", "properties": {"norad_id": 31047, "name": "FENGYUN 1C DEB", "group": "fengyun-1c-debris", "lat": -71.92556844666012, "lon": 10.254655220482734, "alt_km": 857.4763581863817, "timestamp": "2025-12-10T18:57:00.345695+00:00", "meta": {"OBJECT_NAME": "FENGYUN 1C DEB", "OBJECT_ID": "1999-025BER", "EPOCH": "2025-12-08T23:24:24.960096", "MEAN_MOTION": 14.13832824, "ECCENTRICITY": 0.0025492, "INCLINATION": 98.6996, "RA_OF_ASC_NODE": 340.51, "ARG_OF_PERICENTER": 188.6365, "MEAN_ANOMALY": 227.7642, "EPHEMERIS_TYPE": 0, "CLASSIFICATION_TYPE": "U", "NORAD_CAT_ID": 31047, "ELEMENT_SET_NO": 999, "REV_AT_EPOCH": 96306, "BSTAR": 0.00057247, "MEAN_MOTION_DOT": 1.045e-05, "MEAN_MOTION_DDOT": 0}, "tle": {"line1": "1 31047U 99025BER 25342.97528889  .00001045  00000+0  57247-3 0  9999", "line2": "2 31047  98.6996 340.5100 0025492 188.6365 227.7642 14.13832824963066"}}, "geometry": {"type": "Point", "coordinates": [10.254655220482734, -71.92556844666012]}}, {"type": "Feature", "properties": {"norad_id": 31051, "name": "FENGYUN 1C DEB", "group": "fengyun-1c-debris", "lat": 74.58595913756392, "lon": -130.31728654673088, "alt_km": 845.8714879116224, "timestamp": "2025-12-10T18:57:00.345706+00:00", "meta": {"OBJECT_NAME": "FENGYUN 1C DEB", "OBJECT_ID": "1999-025BEV", "EPOCH": "2025-11-29T08:36:57.509280", "MEAN_MOTION": 14.03023318, "ECCENTRICITY": 0.00528722, "INCLINATION": 98.8207, "RA_OF_ASC_NODE": 4.3303, "ARG_OF_PERICENTER": 172.6282, "MEAN_ANOMALY": 187.5674, "EPHEMERIS_TYPE": 0, "CLASSIFICATION_TYPE": "U", "NORAD_CAT_ID": 31051, "ELEMENT_SET_NO": 999, "REV_AT_EPOCH": 63631, "BSTAR": 0.00023865273, "MEAN_MOTION_DOT": 3.33e-06, "MEAN_MOTION_DDOT": 0}, "tle": {"line1": "1 31051U 99025BEV 25333.35899895  .00000333  00000+0  23865-3 0  9992", "line2": "2 31051  98.8207   4.3303 0052872 172.6282 187.5674 14.03023318636313"}}, "geometry": {"type": "Point", "coordinates": [-130.31728654673088, 74.58595913756392]}}, {"type": "Feature", "properties": {"norad_id": 31053, "name": "FENGYUN 1C DEB", "group": "fengyun-1c-debris", "lat": 9.83491465922687, "lon": -71.01970471486199, "alt_km": 895.1743199161056, "timestamp": "2025-12-10T18:57:00.345716+00:00", "meta": {"OBJECT_NAME": "FENGYUN 1C DEB", "OBJECT_ID": "1999-025BEX", "EPOCH": "2025-12-09T07:15:11.826144", "MEAN_MOTION": 13.75848728, "ECCENTRICITY": 0.0309376, "INCLINATION": 98.7939, "RA_OF_ASC_NODE": 106.0672, "ARG_OF_PERICENTER": 104.1614, "MEAN_ANOMALY": 259.4116, "EPHEMERIS_TYPE": 0, "CLASSIFICATION_TYPE": "U", "NORAD_CAT_ID": 31053, "ELEMENT_SET_NO": 999, "REV_AT_EPOCH": 93429, "BSTAR": 0.0025997, "MEAN_MOTION_DOT": 3.538e-05, "MEAN_MOTION_DDOT": 0}, "tle": {"line1": "1 31053U 99025BEX 25343.30222021  .00003538  00000+0  25997-2 0  9998", "line2": "2 31053  98.7939 106.0672 0309376 104.1614 259.4116 13.75848728934294"}}, "geometry": {"type": "Point", "coordinates": [-71.01970471486199, 9.83491465922687]}}, {"type": "Feature", "properties": {"norad_id": 31054, "name": "FENGYUN 1C DEB", "group": "fengyun-1c-debris", "lat": 53.10557372523443, "lon": -13.875873206512017, "alt_km": 844.4868805675051, "timestamp": "2025-12-10T18:57:00.345727+00:00", "meta": {"OBJECT_NAME": "FENGYUN 1C DEB", "OBJECT_ID": "1999-025BEY", "EPOCH": "2025-12-10T12:36:50.677920", "MEAN_MOTION": 14.12167817, "ECCENTRICITY": 0.0010623, "INCLINATION": 98.6904, "RA_OF_ASC_NODE": 357.6244, "ARG_OF_PERICENTER": 126.2609, "MEAN_ANOMALY": 26.543, "EPHEMERIS_TYPE": 0, "CLASSIFICATION_TYPE": "U", "NORAD_CAT_ID": 31054, "ELEMENT_SET_NO": 999, "REV_AT_EPOCH": 96732, "BSTAR": 0.0002202, "MEAN_MOTION_DOT": 3.62e-06, "MEAN_MOTION_DDOT": 0}, "tle": {"line1": "1 31054U 99025BEY 25344.52558655  .00000362  00000+0  22020-3 0  9996", "line2": "2 31054  98.6904 357.6244 0010623 126.2609  26.5430 14.12167817967325"}}, "geometry": {"type": "Point", "coordinates": [-13.875873206512017, 53.10557372523443]}}, {"type": "Feature", "properties": {"norad_id": 31055, "name": "FENGYUN 1C DEB", "group": "fengyun-1c-debris", "lat": -9.317780533117604, "lon": -165.39992120150467, "alt_km": 861.6311119591273, "timestamp": "2025-12-10T18:57:00.345738+00:00", "meta": {"OBJECT_NAME": "FENGYUN 1C DEB", "OBJECT_ID": "1999-025BEZ", "EPOCH": "2025-12-10T01:17:16.958400", "MEAN_MOTION": 14.10371421, "ECCENTRICITY": 0.0023998, "INCLINATION": 98.7602, "RA_OF_ASC_NODE": 15.3329, "ARG_OF_PERICENTER": 279.8903, "MEAN_ANOMALY": 135.2698, "EPHEMERIS_TYPE": 0, "CLASSIFICATION_TYPE": "U", "NORAD_CAT_ID": 31055, "ELEMENT_SET_NO": 999, "REV_AT_EPOCH": 96084, "BSTAR": 0.00044587294, "MEAN_MOTION_DOT": 7.51e-06, "MEAN_MOTION_DDOT": 0}, "tle": {"line1": "1 31055U 99025BEZ 25344.05366850  .00000751  00000+0  44587-3 0  9993", "line2": "2 31055  98.7602  15.3329 0023998 279.8903 135.2698 14.10371421960845"}}, "geometry": {"type": "Point", "coordinates": [-165.39992120150467, -9.317780533117604]}}, {"type": "Feature", "properties": {"norad_id": 31056, "name": "FENGYUN 1C DEB", "group": "fengyun-1c-debris", "lat": 53.75532145033402, "lon": 159.41889450888706, "alt_km": 853.0606043123589, "timestamp": "2025-12-10T18:57:00.345748+00:00", "meta": {"OBJECT_NAME": "FENGYUN 1C DEB", "OBJECT_ID": "1999-025BFA", "EPOCH": "2025-12-10T10:35:47.823936", "MEAN_MOTION": 14.14300186, "ECCENTRICITY": 0.0025683, "INCLINATION": 98.6686, "RA_OF_ASC_NODE": 327.07, "ARG_OF_PERICENTER": 349.5885, "MEAN_ANOMALY": 164.3226, "EPHEMERIS_TYPE": 0, "CLASSIFICATION_TYPE": "U", "NORAD_CAT_ID": 31056, "ELEMENT_SET_NO": 999, "REV_AT_EPOCH": 96785, "BSTAR": 0.00057857, "MEAN_MOTION_DOT": 1.066e-05, "MEAN_MOTION_DDOT": 0}, "tle": {"line1": "1 31056U 99025BFA 25344.44152574  .00001066  00000+0  57857-3 0  9997", "line2": "2 31056  98.6686 327.0700 0025683 349.5885 164.3226 14.14300186967852"}}, "geometry": {"type": "Point", "coordinates": [159.41889450888706, 53.75532145033402]}}]}